241P/LINEAR,e,21.0787,305.4848,111.1183,4.942160,0.0897075,0.61088677,315.7569,03/19.0/2020,2000,g 13.5,4.0
# From MPC 81861
242P/Spahr,e,32.4801,180.4988,246.2868,5.476456,0.0769050,0.27787394,225.1169,03/19.0/2020,2000,g  8.0,4.0
# From MPC111774
243P/NEAT,e,7.6414,87.6567,283.5332,3.831798,0.1314015,0.35966014,75.0260,03/19.0/2020,2000,g 12.5,4.0
# From MPC 88331
244P/Scotti,e,2.2590,353.9908,92.8549,4.895569,0.0909912,0.19818699,271.5439,03/19.0/2020,2000,g  9.0,4.0
# From MPC111774
245P/WISE,e,21.1967,316.6571,316.7908,4.041859,0.1212921,0.45770253,93.2959,03/19.0/2020,2000,g 14.0,4.0
# From MPC114608
246P/NEAT,e,15.9871,78.7486,176.2387,4.016186,0.1224569,0.28679404,318.2946,03/19.0/2020,2000,g 10.5,4.0
# From MPC112394
247P/LINEAR,e,13.6583,54.0126,47.4785,3.970457,0.1245786,0.62468752,58.9216,03/19.0/2020,2000,g 16.5,2.0
# From MPC 75730
248P/Gibbs,e,6.3463,207.7458,209.9347,5.990102,0.0672284,0.63780254,224.9104,03/19.0/2020,2000,g 14.0,4.0
# From MPC105243
249P/LINEAR,e,8.3970,239.1783,65.6081,2.761415,0.2147863,0.82010992,337.9841,03/19.0/2020,2000,g 15.5,4.0
# From MPC110497
250P/Larson,e,13.2622,73.6806,45.7273,3.748104,0.1358272,0.40546089,105.2854,03/19.0/2020,2000,g 14.5,4.0
# From MPC104795
251P/LINEAR,e,23.4095,219.4047,31.2473,3.509457,0.1499147,0.50562910,146.3796,03/19.0/2020,2000,g 16.5,2.0
# From MPC102956
252P/LINEAR,e,10.4120,190.9554,343.3232,3.049102,0.1851170,0.67207859,271.3425,03/19.0/2020,2000,g 17.5,4.0
# From MPC112394
253P/PANSTARRS,e,4.9419,146.8741,230.6633,3.468420,0.1525831,0.41325766,103.9521,03/19.0/2020,2000,g 14.5,4.0
# From MPC 81473
254P/McNaught,e,32.5662,129.1714,219.4341,4.619310,0.0992747,0.32087240,340.7022,03/19.0/2020,2000,g 11.0,4.0
# From NK 2214
255P/Levy,e,18.9631,279.0266,181.7408,2.931102,0.1964073,0.72792938,190.0455,03/19.0/2020,2000,g  9.0,4.0
# From MPC 84027
256P/LINEAR,e,27.6377,81.3494,124.3161,4.635842,0.0987441,0.41856357,252.5571,03/19.0/2020,2000,g 14.0,2.0
# From MPC114608
257P/Catalina,e,20.2226,207.7636,117.6493,3.764284,0.1349524,0.43090482,336.2756,03/19.0/2020,2000,g 11.5,4.0
# From MPC 79655
258P/PANSTARRS,e,6.7457,126.2471,26.1226,4.402757,0.1066883,0.20923929,350.1167,03/19.0/2020,2000,g 13.0,4.0
# From MPC106349
259P/Garradd,e,15.8878,51.4678,257.5492,2.731309,0.2183473,0.33833120,209.0439,03/19.0/2020,2000,g 15.5,4.0
# From MPEC 2020-C98
260P/McNaught,e,15.0519,349.3513,18.3979,3.622003,0.1429818,0.60885581,27.3143,03/19.0/2020,2000,g 13.5,4.0
# From MPEC 2019-TG9
261P/Larson,e,6.0761,291.1624,67.1244,3.489141,0.1512259,0.42294291,41.4801,03/19.0/2020,2000,g 14.0,4.0
# From MPC 82322
262P/McNaught-Russell,e,29.1540,217.9143,170.9997,6.877549,0.0546454,0.81489194,145.6990,03/19.0/2020,2000,g 13.5,4.0
# From MPC 89018
263P/Gibbs,e,11.5505,105.8174,34.4388,3.055851,0.1845040,0.58923022,166.1670,03/19.0/2020,2000,g  9.0,4.0
# From MPC114608
264P/Larsen,e,25.1425,220.8909,346.6583,3.897208,0.1281072,0.37430888,29.0772,03/19.0/2020,2000,g 13.0,4.0
# From MPC 79870
265P/LINEAR,e,14.3585,342.9822,33.4120,4.253509,0.1123526,0.64788010,323.2603,03/19.0/2020,2000,g 14.5,4.0
# From MPEC 2019-TG9
266P/Christensen,e,3.4258,5.0047,97.8570,3.535580,0.1482563,0.33950495,355.3228,03/19.0/2020,2000,g 12.5,4.0
# From MPC114608
267P/LONEOS,e,6.1375,228.6735,114.0827,3.212291,0.1711914,0.61389689,103.6672,03/19.0/2020,2000,g 19.5,4.0
# From MPC 92277
268P/Bernardi,e,16.1321,127.5825,0.1149,4.552524,0.1014672,0.47066798,181.5498,03/19.0/2020,2000,g 14.0,4.0
# From MPC104795
269P/Jedicke,e,7.0702,241.7026,226.0066,7.082205,0.0522939,0.43065933,104.3281,03/19.0/2020,2000,g 10.0,4.0
# From MPC 88332
270P/Gehrels,e,2.9170,222.9600,209.9488,6.670449,0.0572099,0.46680556,141.6776,03/19.0/2020,2000,g  8.0,4.0
# From MPC 92277
271P/van Houten-Lemmon,e,6.8642,9.2938,36.5068,7.050561,0.0526464,0.39306430,128.6845,03/19.0/2020,2000,g 11.0,4.0
# From MPC 81862
272P/NEAT,e,18.0763,109.4656,28.0135,4.453367,0.1048748,0.45416580,270.8031,03/19.0/2020,2000,g 16.0,2.0
# From MPC 82723
273P/Pons-Gambart,e,136.7339,320.4003,20.2864,31.67962,0.0055276,0.97404083,0.0000,12/16.8561/2012,2000,g 11.5,4.0
# From MPC 88332
274P/Tombaugh-Tenagra,e,15.8177,81.3362,38.5326,4.370149,0.1078847,0.43867783,278.9959,03/19.0/2020,2000,g 13.0,4.0
# From MPC 81862
275P/Hermann,e,21.2890,348.7563,174.1153,5.770675,0.0710991,0.71270049,187.8494,03/19.0/2020,2000,g 17.0,4.0
# From MPC114609
276P/Vorobjov,e,14.8254,211.4727,200.0400,5.309522,0.0805603,0.26750097,220.1519,03/19.0/2020,2000,g 11.5,4.0
# From MPC105243
277P/LINEAR,e,16.7792,276.3455,152.3088,3.851652,0.1303868,0.50547230,322.6834,03/19.0/2020,2000,g 14.0,4.0
# From MPC105243
278P/McNaught,e,6.6851,15.4495,238.0805,3.692962,0.1388807,0.43485038,335.4105,03/19.0/2020,2000,g 14.0,4.0
# From MPC100285
279P/La Sagra,e,5.0508,346.2240,5.7548,3.576108,0.1457432,0.39785625,195.7380,03/19.0/2020,2000,g 14.0,4.0
# From MPC 89013
280P/Larsen,e,11.7738,131.3998,104.7934,4.528809,0.1022653,0.41815110,233.9152,03/19.0/2020,2000,g 12.5,4.0
# From MPC 83145
281P/MOSS,e,4.7198,87.1709,26.9427,4.868449,0.0917525,0.17150399,263.4698,03/19.0/2020,2000,g 11.0,4.0
# From MPC xxxxx
282P/,e,5.8095,9.3028,217.4755,4.245643,0.1126650,0.18938859,294.2420,03/19.0/2020,2000,g 13.5,2.0
# From MPEC 2013-M31
283P/Spacewatch,e,14.4538,161.1435,22.2781,4.139082,0.1170437,0.48511367,297.0270,03/19.0/2020,2000,g  9.0,4.0
# From MPC 93589
284P/McNaught,e,11.8584,144.2819,202.6765,3.674446,0.1399318,0.37581844,283.9523,03/19.0/2020,2000,g 13.0,4.0
# From MPC 85339
285P/LINEAR,e,25.0243,185.4830,178.4057,4.509138,0.1029352,0.61791105,253.9869,03/19.0/2020,2000,g 15.0,4.0
# From MPC 90771
286P/Christensen,e,17.0449,283.9650,24.7377,4.111809,0.1182101,0.42513793,267.2624,03/19.0/2020,2000,g 14.0,4.0
# From MPC 96868
287P/Christensen,e,16.3177,139.0376,188.8126,4.168501,0.1158068,0.27038479,220.7752,03/19.0/2020,2000,g 13.5,4.0
# From MPC xxxxx
288P/,e,3.2403,83.1869,280.7848,3.047097,0.1852997,0.20135805,227.5232,03/19.0/2020,2000,g 16.0,2.0
# From MPC118844
289P/Blanpain,e,5.8938,68.8904,9.8911,3.048593,0.1851633,0.68544947,16.4800,03/19.0/2020,2000,g  2.5,4.0
# From MPC 95214
290P/Jager,e,19.7609,302.8795,181.4280,6.139012,0.0647972,0.64683873,142.3767,03/19.0/2020,2000,g 10.5,4.0
# From MPC 89314
291P/NEAT,e,6.3385,238.2551,174.1222,4.505338,0.1030654,0.43710499,242.1153,03/19.0/2020,2000,g 13.0,4.0
# From MPC115887
292P/Li,e,24.2520,91.0026,319.4814,6.111242,0.0652394,0.58745649,146.1505,03/19.0/2020,2000,g 12.5,4.0
# From MPC 92278
293P/Spacewatch,e,9.0571,78.4114,41.0952,3.643010,0.1417469,0.41817766,320.9671,03/19.0/2020,2000,g 14.5,4.0
# From MPC 89013
294P/LINEAR,e,18.2152,312.5963,235.5393,3.205282,0.1717531,0.59425348,18.9387,03/19.0/2020,2000,g 15.5,4.0
# From MPC 93589
295P/LINEAR,e,21.0731,7.4172,72.9759,5.306483,0.0806295,0.61602484,172.7689,03/19.0/2020,2000,g 12.0,4.0
# From MPC 92278
296P/Garradd,e,25.2351,263.6404,350.1174,3.496721,0.1507345,0.47850429,332.4290,03/19.0/2020,2000,g 14.0,4.0
# From MPC102956
297P/Beshore,e,10.3286,97.6610,132.4526,3.443436,0.1542468,0.31938015,312.2284,03/19.0/2020,2000,g 15.0,4.0
# From MPC114609
298P/Christensen,e,7.8703,52.8296,100.6947,3.593746,0.1446715,0.38695877,335.2044,03/19.0/2020,2000,g 15.0,4.0
# From MPC101100
299P/Catalina-PANSTARRS,e,10.4779,271.6229,323.8984,4.383293,0.1073997,0.28214040,198.6082,03/19.0/2020,2000,g 11.5,4.0
# From MPC114609
300P/Catalina,e,5.6765,95.6699,222.8635,2.700043,0.2221509,0.69164032,111.7119,03/19.0/2020,2000,g 16.0,4.0
# From MPC 89014
301P/LINEAR-NEAT,e,10.3469,351.1800,193.7310,5.737132,0.0717236,0.58591877,145.3901,03/19.0/2020,2000,g 13.0,4.0
# From MPEC 2020-C98
302P/Lemmon-PANSTARRS,e,6.0338,121.7536,208.1638,4.278001,0.1113891,0.22964288,157.9322,03/19.0/2020,2000,g 12.5,4.0
# From MPC 92278
303P/NEAT,e,7.0161,347.9713,356.8478,5.050179,0.0868448,0.50988984,172.1332,03/19.0/2020,2000,g 13.5,4.0
# From MPC 92987
304P/Ory,e,2.6067,58.9404,335.2135,3.150540,0.1762490,0.60047052,334.1857,03/19.0/2020,2000,g 16.5,4.0
# From MPC101100
305P/Skiff,e,11.6394,240.1389,147.2639,4.645532,0.0984353,0.69260578,192.0851,03/19.0/2020,2000,g 18.0,4.0
# From MPC 92278
306P/LINEAR,e,8.3104,341.3840,0.8015,3.121348,0.1787272,0.59316622,10.0337,03/19.0/2020,2000,g 19.0,4.0
# From MPC 92278
307P/LINEAR,e,4.4306,158.1209,222.1787,5.795932,0.0706349,0.67383672,135.3756,03/19.0/2020,2000,g 15.0,4.0
# From MPC109148
308P/Lagerkvist-Carsenty,e,4.8492,63.1160,333.6535,6.609514,0.0580029,0.36250037,103.2491,03/19.0/2020,2000,g 13.0,2.0
# From MPC 94284
309P/LINEAR,e,17.0247,10.1487,50.0050,4.370364,0.1078767,0.61760156,201.1177,03/19.0/2020,2000,g 15.0,4.0
# From MPC 98566
310P/Hill,e,13.1286,8.9292,31.8984,4.177117,0.1154487,0.42170375,208.1064,03/19.0/2020,2000,g 13.5,4.0
# From MPC109593
311P/PANSTARRS,e,4.9700,279.2272,144.5858,2.188367,0.3044555,0.11526926,298.3643,03/19.0/2020,2000,g 17.0,4.0
# From MPC 92279
312P/NEAT,e,19.7639,144.6745,207.5207,3.468511,0.1525771,0.42824426,331.0165,03/19.0/2020,2000,g 16.0,4.0
# From MPEC 2019-TG9
313P/Gibbs,e,10.9834,105.9723,254.6038,3.161029,0.1753724,0.23477674,355.2371,03/19.0/2020,2000,g 15.0,4.0
# From MPC105243
314P/Montani,e,3.9790,267.6198,214.2429,7.277456,0.0502036,0.41645476,63.0808,03/19.0/2020,2000,g  9.5,4.0
# From MPC115888
315P/LONEOS,e,17.8605,69.2388,65.6316,4.944221,0.0896514,0.52275034,107.6720,03/19.0/2020,2000,g 11.0,4.0
# From MPC 92279
316P/LONEOS-Christensen,e,9.8882,246.7683,193.8964,4.344464,0.1088428,0.16138654,174.3909,03/19.0/2020,2000,g 13.5,4.0
# From MPEC 2020-C98
317P/WISE,e,11.9509,275.5196,334.8988,2.965484,0.1930015,0.57043651,323.1029,03/19.0/2020,2000,g 17.5,4.0
# From MPC102103
318P/McNaught-Hartley,e,17.8716,35.6622,313.0982,7.496523,0.0480191,0.67475914,77.2463,03/19.0/2020,2000,g  8.5,6.0
# From MPC 97499
319P/Catalina-McNaught,e,15.0951,111.3787,203.6054,3.569386,0.1461551,0.66639724,251.4851,03/19.0/2020,2000,g 15.0,4.0
# From MPC 96281
